[Satellite]
VERSION=1.1
NAME=IRIDIUM 25 [+]
NICKNAME=IRIDIUM 25 [+]
TLE1=1 24904U 97043B   18020.88850525  .00000087  00000-0  24057-4 0  9991
TLE2=2 24904  86.3986 164.4581 0001983  91.1466 268.9957 14.34215648 68826
